#dP2020 12  7  0  0  0.00000000      97 __u+U IGS14 FIT  IAC
## 2135  86400.00000000   900.00000000 59190 0.0000000000000
+  120   C01C02C03C04C05C06C07C08C09C10C11C12C13C14C16C19C20
+        C21C22C23C24C25C26C27C28C29C30C32C33C34C35C36C37C38
+        C39C40C43C44C45C46E01E02E03E04E05E07E08E09E11E12E13
+        E14E15E18E19E21E24E25E26E27E30E31E33E36G01G02G03G04
+        G05G06G07G08G09G10G11G12G13G14G15G16G17G18G19G20G21
+        G22G23G24G25G26G27G28G29G30G31G32J01J02J03R01R02R03
+        R04R05R07R08R09R11R12R13R14R15R16R17R18R19R20R21R22
+        R24  0  0  0  0  0  0  0  0  0  0  0  0  0  0  0  0
++        13 13 13 13 13  8  8  9  8  8  7  7 12  7  8  7  7
++         7  7  7  7  7  7  7  7  7  8  8  7  8  8  8  8  9
++         9  9  9  9  9 10  4  4  4  4  4  4  4  4  4  4  4
++         4  4  4  4  4  4  4  4  4  4  4  4  4  3  3  3  3
++         3  3  3  3  3  3  4  3  3  3  3  3  3  3  3  3  3
++         4  3  3  3  3  3  3  3  3  3  3  8  9  8  6  6  5
++         5  5  5  5  5  7  5  6  5  5  6  6  5  6  6  5  6
++         5  0  0  0  0  0  0  0  0  0  0  0  0  0  0  0  0
%c M  cc GPS ccc cccc cccc cccc cccc ccccc ccccc ccccc ccccc
%c cc cc ccc ccc cccc cccc cccc cccc ccccc ccccc ccccc ccccc
%f  1.2500000  1.025000000  0.00000000000  0.000000000000000
%f  0.0000000  0.000000000  0.00000000000  0.000000000000000
%i    0    0    0    0      0      0      0      0         0
%i    0    0    0    0      0      0      0      0         0
/* INFORMATION & ANALYSIS CENTER (IAC)            FINAL DATA
/* S/V CLOCKS ARE ALIGNED TO GNSS TIME                      
/* G:C1WC2W R:C1PC2P E:C1XC5X C:C2IC6I J:C1CC2S             
/* PCV:IGS14_2134 OL/AL:FES2004  NONE     YN ORB:CoN CLK:CoN
*  2020 12 07  4 30  0.00000000
PC01 -34360.590882  24411.480002   -141.760298   -673.974100
PC02   4429.977192  41938.349106    654.508386    687.884717
PC03 -14723.485705  39547.820869   -149.992427    241.836279
PC04 -39617.687568  14389.217277   -592.562046   -143.158356
PC05  21912.650785  36011.884664   1003.027604   -479.552480
PC06  -9683.192363  23603.202257  34034.346746     38.742069
PC07 -24293.222629  29342.254768 -18362.657479   -107.045981
PC08 -11570.394639  38258.944315 -12729.548913   -767.741870
PC09   6389.102393  31385.111554  27879.580808    889.117414
PC10  -9403.862043  30230.055356 -27821.389764   -127.571950
PC11 -10763.668781  10859.087322 -23274.375995   -800.750669
PC12 -21089.290152  -6360.147530 -17108.406199    651.539936
PC13  -3353.018291  41871.927317    325.978567     41.879347
PC14 -21660.961496  13389.048246  11491.472502   -368.784894
PC16  -7208.894480  24219.250379  33856.923379   -625.281595
PC19  13137.064270 -16288.569342 -18440.765371    644.846270
PC20  26095.057346  -9031.176509  -3935.753274   -914.756467
PC21 -24059.569240  -3988.187466 -13570.405446   -745.715351
PC22  -7824.720060 -14310.277716 -22651.815789   -808.627820
PC23   3052.958428  23890.572443 -14081.453521   -898.729268
PC24 -17346.020541  12216.820493  18106.337257   -726.680995
PC25  -9197.445792  26228.541936   2342.990026   -852.797737
PC26 -14747.125371  -6989.792905  22633.345111    932.057352
PC27  21889.576595  14568.522094   9355.629346    445.173314
PC28  13239.927255  23128.878738  -8253.026865   -137.047723
PC29   2449.103529 -18255.809208  20962.400319    321.281044
PC30  17862.370188  -2773.258617  21266.448178    413.970396
PC32  24057.252753   3855.641360  13608.856987   -882.294765
PC33 -13153.239367  16374.269336  18378.295565   -861.514093
PC34 -17503.155284   3380.901544 -21466.862771   -792.099018
PC35 -13800.637010 -22702.776352   8489.058800   -525.282421
PC36   9967.306028 -25936.543002  -2600.388080   -812.391792
PC37  14269.368299   8116.511946 -22545.291706   -866.899304
PC38 -10339.451027  39584.250674  -9859.339927    116.361595
PC39  -2334.625921  26052.460683  33087.546427     26.018383
PC40 -18838.563614  25894.315703 -27486.504503    108.421703
PC43  -2999.086453  18081.232320 -21048.587908   -495.054264
PC44 -22365.203692 -13921.539643  -9161.293506 999999.999999
PC45  -3074.654082 -23858.415725  14173.111766 999999.999999
PC46  17140.458653 -13120.540095 -17700.399416    510.877624
PE01 -10925.258276  24241.744308 -12990.139775   -998.143079
PE02  10841.649884 -24248.840527  13087.300289    181.799878
PE03   2585.453893 -16970.784685 -24124.151406   -373.210563
PE04  18436.525077  16304.710164  16440.950038   -662.842828
PE05  22407.437142  -7681.329352 -17756.943281   -323.344166
PE07 -28968.555818  -6011.854709   1076.930267   -471.376772
PE08 -18808.061931 -16024.211071 -16314.979081   6080.824588
PE09  29002.468188   5753.174736  -1225.861800   5840.986510
PE11  17816.552327   9115.640868  21811.410831   6688.228159
PE12  12650.727516  25920.234662   6682.592614   5469.745794
PE13 -17785.434618  -9457.211322 -21679.213310    407.893826
PE14 -15854.232423 -18382.188509   9862.027181  -1250.918713
PE15 -12758.298283 -25840.332678  -6756.727081    840.311721
PE18   5573.241721  22522.576939 -20074.497461  -1366.745903
PE19  -5169.904833  16215.872403  24212.997328    146.734851
PE21 -22304.648493  18782.696039   5070.482226   -635.914287
PE24  20899.499587  -1556.919087 -20920.772855   -622.189553
PE25  22352.499633 -18696.749672  -5210.626975   -521.727416
PE26 -12245.282364  13090.944706 -23542.902111   2411.422223
PE27 -21071.787339   2183.420445  20675.958068     77.531417
PE30  -6813.379494 -16156.546191  23847.418183   3364.882686
PE31   7473.949683  15574.374622 -24023.577508   -476.292824
PE33    249.680337  27008.326000 -12097.747082   -463.886585
PE36  12356.475928 -12465.752705  23845.468443    471.188895
PG01  13540.920673  -8274.710609  20995.347240    799.069636
PG02 -13678.187678 -15047.305688 -16435.281101   -551.443291
PG03  23010.203630 -12731.694399   3242.765679    -23.256415
PG04  20212.578386  -2746.996471 -17031.805761   -162.085526
PG05 -18633.683212  -3066.157429 -18903.727361    -27.728215
PG06  -5793.267025 -25141.778371  -6156.376794     -3.401486
PG07   6849.550181 -22545.833171 -11431.412019   -428.951069
PG08  24460.335411   3949.266890   9959.738841     -2.003473
PG09   9639.132686 -12365.766587 -21504.343871   -298.431315
PG10  -3299.747784  18123.121820  19130.327933    -10.143681
PG11  17698.604987    560.152124  19244.600495    -88.296985
PG12 -24064.094264   9237.317583   5820.978128     30.355319
PG13 -22981.652437 -13179.378138   2512.275207     72.422050
PG14   6639.974232 -18580.774122  17774.372840     56.307812
PG15 -24648.067332   -946.208703   9961.496436   -184.997791
PG16  18390.641809   4591.167951 -19015.722230   -246.809968
PG17  -8281.432462 -18324.493980  17796.079627    363.739503
PG18  -5893.172695  23845.248537 -10041.117267    329.887876
PG19 -14737.332096 -18564.615267  11781.337403    -68.623857
PG20 -12951.748736  20969.556519   9476.058885    525.715060
PG21  15870.186749   1033.835782  22044.537429     75.272891
PG22  22733.124251  -7504.041436  11528.075614   -719.147039
PG23 -13408.347926  19595.069974  11842.917016    107.905018
PG24 -15189.611130   4044.759889  21159.190513      5.476573
PG25 -18795.099164  17645.207156  -6004.124479     35.251890
PG26   8661.165339  12970.296606 -21532.825457     10.505475
PG27  23474.618311  12746.230345  -1640.207496    -29.524386
PG28   3210.724639 -17463.729766  20384.147055    646.347403
PG29 -11784.401507   9822.589760 -21723.807846   -251.098773
PG30    455.931883 -26361.350418  -1973.946213   -348.130803
PG31   7089.619802  23850.285695  -8660.690022    -86.042262
PG32   9560.294638  18042.367632  17157.566928      6.288309
PJ01 -31370.471850  23892.766971  19977.633166   -335.160846
PJ02 -33356.152168  25384.690907   9746.932944      0.015762
PJ03 -22107.763583  19573.994587 -25474.362831     -4.022557
PR01 -14181.705933   9961.806598  18714.394902     71.688010
PR02   8913.696817   9955.919237  21772.588654    457.563378
PR03  23127.784415   3821.855765  10158.378102     26.884112
PR04  24114.525382  -4368.253341  -7075.028340     64.605949
PR05  11661.655246 -10035.462269 -20351.560203     62.458913
PR07 -23365.323462  -3527.958565  -9517.726147    -41.696604
PR08 -24073.719843   4453.392490   7168.026678    -56.122766
PR09     36.558482 -18787.845838  17236.708227     11.706370
PR11 -14210.380085   7672.208646  19763.419718     21.865648
PR12 -11103.831978  22912.075975  -1288.566372    186.222826
PR13   -430.985211  18969.977800 -17059.641272    -47.632922
PR14  10585.370065   3533.259175 -22923.527857     58.495656
PR15  15239.439991 -13556.715571 -15299.959817    106.444888
PR16  10241.135633 -23340.859661   2122.907953     -8.898001
PR17  16276.388979  15363.998200  12208.253778    380.249052
PR18  12185.808692    466.860326  22432.110329     58.786603
PR19   2407.717371 -14271.286820  21013.601035   -122.724428
PR20 -10383.687715 -22573.556511   5701.392359   -428.275560
PR21 -16212.380762 -14701.521421 -13124.854115   -171.384115
PR22 -11508.437581    722.977245 -22748.907124    -85.635658
PR24  10957.152734  22496.767562  -4876.756305     23.176724
EOF
